{"type": "FeatureCollection", "features": [ {"type": "Feature", "properties": {"norad_id": 66917, "name": "HULIANWANG DIGUI 14C", "group": "last-30-days", "lat": -39.77514089662338, "lon": -5.6598108218099465, "alt_km": 874.3137670766664, "timestamp": "2025-12-09T14:52:24.943338+00:00", "meta": {"OBJECT_NAME": "HULIANWANG DIGUI 14C", "OBJECT_ID": "2025-285C", "EPOCH": "2025-12-09T05:13:12.725760", "MEAN_MOTION": 14.05578301, "ECCENTRICITY": 0.00075295, "INCLINATION": 50.001, "RA_OF_ASC_NODE": 131.6443, "ARG_OF_PERICENTER": 273.3383, "MEAN_ANOMALY": 86.6661, "EPHEMERIS_TYPE": 0, "CLASSIFICATION_TYPE": "U", "NORAD_CAT_ID": 66917, "ELEMENT_SET_NO": 999, "REV_AT_EPOCH": 41, "BSTAR": -6.653075e-06, "MEAN_MOTION_DOT": -1.63e-06, "MEAN_MOTION_DDOT": 0}, "tle": {"line1": "1 66917U 25285C   25343.21750840 -.00000163  00000+0 -66531-5 0  9992", "line2": "2 66917  50.0010 131.6443 0007529 273.3383  86.6661 14.05578301   413"}}, "geometry": {"type": "Point", "coordinates": [-5.6598108218099465, -39.77514089662338]}}, {"type": "Feature", "properties": {"norad_id": 66918, "name": "HULIANWANG DIGUI 14D", "group": "last-30-days", "lat": -40.55072867067522, "lon": -4.086786686945009, "alt_km": 874.2362014310456, "timestamp": "2025-12-09T14:52:24.943348+00:00", "meta": {"OBJECT_NAME": "HULIANWANG DIGUI 14D", "OBJECT_ID": "2025-285D", "EPOCH": "2025-12-09T05:12:51.799680", "MEAN_MOTION": 14.05702773, "ECCENTRICITY": 0.00064594, "INCLINATION": 50.0042, "RA_OF_ASC_NODE": 131.6447, "ARG_OF_PERICENTER": 268.3928, "MEAN_ANOMALY": 91.6237, "EPHEMERIS_TYPE": 0, "CLASSIFICATION_TYPE": "U", "NORAD_CAT_ID": 66918, "ELEMENT_SET_NO": 999, "REV_AT_EPOCH": 41, "BSTAR": 9.186602e-06, "MEAN_MOTION_DOT": -1.37e-06, "MEAN_MOTION_DDOT": 0}, "tle": {"line1": "1 66918U 25285D   25343.21726620 -.00000137  00000+0  91866-5 0  9991", "line2": "2 66918  50.0042 131.6447 0006459 268.3928  91.6237 14.05702773   410"}}, "geometry": {"type": "Point", "coordinates": [-4.086786686945009, -40.55072867067522]}}, {"type": "Feature", "properties": {"norad_id": 66919, "name": "HULIANWANG DIGUI 14E", "group": "last-30-days", "lat": -40.657101362235025, "lon": -3.8640792118008824, "alt_km": 874.0225701872314, "timestamp": "2025-12-09T14:52:24.943359+00:00", "meta": {"OBJECT_NAME": "HULIANWANG DIGUI 14E", "OBJECT_ID": "2025-285E", "EPOCH": "2025-12-09T05:12:48.055968", "MEAN_MOTION": 14.05713931, "ECCENTRICITY": 0.0007844, "INCLINATION": 50.0055, "RA_OF_ASC_NODE": 131.6472, "ARG_OF_PERICENTER": 279.822, "MEAN_ANOMALY": 80.1799, "EPHEMERIS_TYPE": 0, "CLASSIFICATION_TYPE": "U", "NORAD_CAT_ID": 66919, "ELEMENT_SET_NO": 999, "REV_AT_EPOCH": 41, "BSTAR": -9.735283e-06, "MEAN_MOTION_DOT": -1.68e-06, "MEAN_MOTION_DDOT": 0}, "tle": {"line1": "1 66919U 25285E   25343.21722287 -.00000168  00000+0 -97353-5 0  9999", "line2": "2 66919  50.0055 131.6472 0007844 279.8220  80.1799 14.05713931   418"}}, "geometry": {"type": "Point", "coordinates": [-3.8640792118008824, -40.657101362235025]}}, {"type": "Feature", "properties": {"norad_id": 66920, "name": "HULIANWANG DIGUI 14F", "group": "last-30-days", "lat": -41.46301142131869, "lon": -2.125956947068434, "alt_km": 874.4433541866183, "timestamp": "2025-12-09T14:52:24.943371+00:00", "meta": {"OBJECT_NAME": "HULIANWANG DIGUI 14F", "OBJECT_ID": "2025-285F", "EPOCH": "2025-12-09T05:12:25.833024", "MEAN_MOTION": 14.05848922, "ECCENTRICITY": 0.00058293, "INCLINATION": 50.0088, "RA_OF_ASC_NODE": 131.6489, "ARG_OF_PERICENTER": 276.7247, "MEAN_ANOMALY": 83.2995, "EPHEMERIS_TYPE": 0, "CLASSIFICATION_TYPE": "U", "NORAD_CAT_ID": 66920, "ELEMENT_SET_NO": 999, "REV_AT_EPOCH": 41, "BSTAR": 0.0001126166, "MEAN_MOTION_DOT": 3.3e-07, "MEAN_MOTION_DDOT": 0}, "tle": {"line1": "1 66920U 25285F   25343.21696566  .00000033  00000+0  11262-3 0  9993", "line2": "2 66920  50.0088 131.6489 0005829 276.7247  83.2995 14.05848922   411"}}, "geometry": {"type": "Point", "coordinates": [-2.125956947068434, -41.46301142131869]}}, {"type": "Feature", "properties": {"norad_id": 66921, "name": "HULIANWANG DIGUI 14G", "group": "last-30-days", "lat": -41.662287753467965, "lon": -1.6813051440593294, "alt_km": 874.050509430017, "timestamp": "2025-12-09T14:52:24.943381+00:00", "meta": {"OBJECT_NAME": "HULIANWANG DIGUI 14G", "OBJECT_ID": "2025-285G", "EPOCH": "2025-12-09T05:12:19.598400", "MEAN_MOTION": 14.05882247, "ECCENTRICITY": 0.00069615, "INCLINATION": 50.0104, "RA_OF_ASC_NODE": 131.6502, "ARG_OF_PERICENTER": 283.2439, "MEAN_ANOMALY": 76.7689, "EPHEMERIS_TYPE": 0, "CLASSIFICATION_TYPE": "U", "NORAD_CAT_ID": 66921, "ELEMENT_SET_NO": 999, "REV_AT_EPOCH": 41, "BSTAR": 8.922075e-06, "MEAN_MOTION_DOT": -1.38e-06, "MEAN_MOTION_DDOT": 0}, "tle": {"line1": "1 66921U 25285G   25343.21689350 -.00000138  00000+0  89221-5 0  9996", "line2": "2 66921  50.0104 131.6502 0006961 283.2439  76.7689 14.05882247   416"}}, "geometry": {"type": "Point", "coordinates": [-1.6813051440593294, -41.662287753467965]}}, {"type": "Feature", "properties": {"norad_id": 66922, "name": "HULIANWANG DIGUI 14H", "group": "last-30-days", "lat": -42.32244961528323, "lon": -0.14937311218568214, "alt_km": 874.0200265390777, "timestamp": "2025-12-09T14:52:24.943393+00:00", "meta": {"OBJECT_NAME": "HULIANWANG DIGUI 14H", "OBJECT_ID": "2025-285H", "EPOCH": "2025-12-09T05:11:59.892288", "MEAN_MOTION": 14.05997598, "ECCENTRICITY": 0.00069167, "INCLINATION": 50.0078, "RA_OF_ASC_NODE": 131.6457, "ARG_OF_PERICENTER": 289.4766, "MEAN_ANOMALY": 70.5392, "EPHEMERIS_TYPE": 0, "CLASSIFICATION_TYPE": "U", "NORAD_CAT_ID": 66922, "ELEMENT_SET_NO": 999, "REV_AT_EPOCH": 41, "BSTAR": -9.229888e-06, "MEAN_MOTION_DOT": -1.68e-06, "MEAN_MOTION_DDOT": 0}, "tle": {"line1": "1 66922U 25285H   25343.21666542 -.00000168  00000+0 -92299-5 0  9998", "line2": "2 66922  50.0078 131.6457 0006916 289.4766  70.5392 14.05997598   416"}}, "geometry": {"type": "Point", "coordinates": [-0.14937311218568214, -42.32244961528323]}}, {"type": "Feature", "properties": {"norad_id": 66923, "name": "HULIANWANG DIGUI 14J", "group": "last-30-days", "lat": -43.96149328859783, "lon": 4.038759536192994, "alt_km": 872.657025518698, "timestamp": "2025-12-09T14:52:24.943403+00:00", "meta": {"OBJECT_NAME": "HULIANWANG DIGUI 14J", "OBJECT_ID": "2025-285J", "EPOCH": "2025-12-07T22:29:36.786048", "MEAN_MOTION": 14.06515715, "ECCENTRICITY": 0.00053876, "INCLINATION": 50.0075, "RA_OF_ASC_NODE": 136.8754, "ARG_OF_PERICENTER": 280.8946, "MEAN_ANOMALY": 79.1354, "EPHEMERIS_TYPE": 0, "CLASSIFICATION_TYPE": "U", "NORAD_CAT_ID": 66923, "ELEMENT_SET_NO": 999, "REV_AT_EPOCH": 23, "BSTAR": -4.7305e-07, "MEAN_MOTION_DOT": -1.53e-06, "MEAN_MOTION_DDOT": 0}, "tle": {"line1": "1 66923U 25285J   25341.93723132 -.00000153  00000+0 -47305-6 0  9998", "line2": "2 66923  50.0075 136.8754 0005387 280.8946  79.1354 14.06515715   238"}}, "geometry": {"type": "Point", "coordinates": [4.038759536192994, -43.96149328859783]}}, {"type": "Feature", "properties": {"norad_id": 66924, "name": "CZ-8A R/B", "group": "last-30-days", "lat": 8.560021462945537, "lon": -57.824395196313326, "alt_km": 763.442636058181, "timestamp": "2025-12-09T14:52:24.943414+00:00", "meta": {"OBJECT_NAME": "CZ-8A R/B", "OBJECT_ID": "2025-285K", "EPOCH": "2025-12-09T02:21:52.697376", "MEAN_MOTION": 14.30499234, "ECCENTRICITY": 0.01193351, "INCLINATION": 50.0062, "RA_OF_ASC_NODE": 131.6541, "ARG_OF_PERICENTER": 93.8913, "MEAN_ANOMALY": 267.5655, "EPHEMERIS_TYPE": 0, "CLASSIFICATION_TYPE": "U", "NORAD_CAT_ID": 66924, "ELEMENT_SET_NO": 999, "REV_AT_EPOCH": 40, "BSTAR": 3.2292247e-05, "MEAN_MOTION_DOT": -7.6e-07, "MEAN_MOTION_DDOT": 0}, "tle": {"line1": "1 66924U 25285K   25343.09852659 -.00000076  00000+0  32292-4 0  9995", "line2": "2 66924  50.0062 131.6541 0119335  93.8913 267.5655 14.30499234   407"}}, "geometry": {"type": "Point", "coordinates": [-57.824395196313326, 8.560021462945537]}}]}